AL MUNTHER              
1 63240U 25052AG  26068.64540749  .00017933  00000+0  65015-3 0  9992
2 63240  97.4001 323.9152 0008027 130.7043 229.4895 15.28381521 54798
STARLINK-35832          
1 66495U 25263L   26068.12481431  .00046717  00000+0  16968-2 0  9990
2 66495  43.0046 353.7896 0001688 256.5212 103.5452 15.27574085 18818
